0 COSMOS 1656
1 15755U 85042A   13281.51073111 -.00000180  00000-0 -61585-4 0  5891
2 15755 071.1128 322.2995 0036608 341.0531 018.9230 14.20240103469332
0 COSMOS 1656
1 15755U 85042A   13282.63764180 -.00000221  00000-0 -80537-4 0  5904
2 15755 071.1126 319.9259 0036670 339.3503 020.6139 14.20240306469494
0 COSMOS 1656
1 15755U 85042A   13284.04627940 -.00000195  00000-0 -68478-4 0  5914
2 15755 071.1122 316.9589 0036727 337.2440 022.7056 14.20239752469699
0 COSMOS 1656
1 15755U 85042A   13286.51139496  .00000001  00000-0  22710-4 0  5937
2 15755 071.1117 311.7664 0036845 333.5584 026.3661 14.20237542470047
0 COSMOS 1656
1 15755U 85042A   13287.63830588  .00000106  00000-0  71147-4 0  5946
2 15755 071.1117 309.3927 0036946 331.8910 028.0220 14.20236839470204
0 COSMOS 1656
1 15755U 85042A   13289.18780953  .00000179  00000-0  10516-3 0  5951
2 15755 071.1116 306.1285 0037043 329.5798 030.3178 14.20236812470425
0 COSMOS 1656
1 15755U 85042A   13290.45558607  .00000166  00000-0  99456-4 0  5960
2 15755 071.1117 303.4580 0037102 327.7033 032.1821 14.20237497470607
0 COSMOS 1656
1 15755U 85042A   13292.14595519  .00000022  00000-0  32416-4 0  5976
2 15755 071.1120 299.8972 0037187 325.1785 034.6908 14.20239161470842
0 COSMOS 1656
1 15755U 85042A   13293.48416310 -.00000095  00000-0 -21860-4 0  5989
2 15755 071.1121 297.0783 0037255 323.1828 036.6740 14.20240335471038
0 COSMOS 1656
1 15755U 85042A   13295.17452933 -.00000192  00000-0 -67128-4 0  5994
2 15755 071.1120 293.5177 0037319 320.6493 039.1922 14.20241116471270
